{
  "norad_id": 53556,
  "name": "STARLINK-4505",
  "history": [
    {
      "epoch": "2026-03-28T22:15:38.193696Z",
      "apogee_km": 540.7151868037963,
      "perigee_km": 538.756045278933,
      "latitude_deg": -6.97056557599075e-05,
      "longitude_deg": 177.50826109614022,
      "height_km": 540.7130249448038,
      "semi_major_axis_km": 6917.872616041364,
      "eccentricity": 0.0001416,
      "inclination_deg": 53.2185,
      "raan_deg": 337.7584,
      "arg_perigee_deg": 94.7811,
      "mean_anomaly_deg": 265.3342,
      "mean_motion_rev_day": 15.08842543
    },
    {
      "epoch": "2026-03-28T23:51:01.268352Z",
      "apogee_km": 540.7116489287782,
      "perigee_km": 538.7538917837664,
      "latitude_deg": -4.484646335638718e-05,
      "longitude_deg": 153.29964672947875,
      "height_km": 540.7233424172601,
      "semi_major_axis_km": 6917.869770356272,
      "eccentricity": 0.0001415,
      "inclination_deg": 53.2185,
      "raan_deg": 337.4612,
      "arg_perigee_deg": 95.5581,
      "mean_anomaly_deg": 264.5572,
      "mean_motion_rev_day": 15.08843474
    },
    {
      "epoch": "2026-03-30T01:17:12.346368Z",
      "apogee_km": 540.8429505771564,
      "perigee_km": 538.6733602985078,
      "latitude_deg": 1.9447998033553084e-05,
      "longitude_deg": 125.94970043734935,
      "height_km": 540.5368528983172,
      "semi_major_axis_km": 6917.895155437832,
      "eccentricity": 0.00015681,
      "inclination_deg": 53.2185,
      "raan_deg": 332.702,
      "arg_perigee_deg": 83.8166,
      "mean_anomaly_deg": 276.3005,
      "mean_motion_rev_day": 15.08835169
    },
    {
      "epoch": "2026-03-30T21:57:12.659040Z",
      "apogee_km": 540.9194112065343,
      "perigee_km": 538.5562651618111,
      "latitude_deg": 5.47582085580225e-06,
      "longitude_deg": 171.23563483624073,
      "height_km": 540.924415124368,
      "semi_major_axis_km": 6917.874838184172,
      "eccentricity": 0.0001708,
      "inclination_deg": 53.2198,
      "raan_deg": 328.838,
      "arg_perigee_deg": 104.2594,
      "mean_anomaly_deg": 255.8588,
      "mean_motion_rev_day": 15.08841816
    },
    {
      "epoch": "2026-03-31T21:48:00.373824Z",
      "apogee_km": 540.8419208969917,
      "perigee_km": 538.6876862753552,
      "latitude_deg": 2.221532970043563e-05,
      "longitude_deg": 168.09599250915485,
      "height_km": 540.5577218907673,
      "semi_major_axis_km": 6917.901803586173,
      "eccentricity": 0.0001557,
      "inclination_deg": 53.2186,
      "raan_deg": 324.3765,
      "arg_perigee_deg": 84.5316,
      "mean_anomaly_deg": 275.5854,
      "mean_motion_rev_day": 15.08832994
    }
  ]
}